[{"OBJECT_NAME":"OBJECT B","OBJECT_ID":"2025-055B","EPOCH":"2026-03-09T22:16:45.727392","MEAN_MOTION":15.18688893,"ECCENTRICITY":0.0012288,"INCLINATION":97.6347,"RA_OF_ASC_NODE":209.4031,"ARG_OF_PERICENTER":141.9281,"MEAN_ANOMALY":218.2824,"EPHEMERIS_TYPE":0,"CLASSIFICATION_TYPE":"U","NORAD_CAT_ID":63292,"ELEMENT_SET_NO":999,"REV_AT_EPOCH":5406,"BSTAR":0.00077133198,"MEAN_MOTION_DOT":0.00015979,"MEAN_MOTION_DDOT":0},{"OBJECT_NAME":"OBJECT Q","OBJECT_ID":"2025-313Q","EPOCH":"2026-03-09T22:26:39.769728","MEAN_MOTION":15.21804409,"ECCENTRICITY":0.0014523,"INCLINATION":97.401,"RA_OF_ASC_NODE":145.1966,"ARG_OF_PERICENTER":358.4503,"MEAN_ANOMALY":1.6686,"EPHEMERIS_TYPE":0,"CLASSIFICATION_TYPE":"U","NORAD_CAT_ID":67262,"ELEMENT_SET_NO":999,"REV_AT_EPOCH":1085,"BSTAR":0.00057243676,"MEAN_MOTION_DOT":0.00012974,"MEAN_MOTION_DDOT":0}]
